OBJECT_NAME,OBJECT_ID,EPOCH,MEAN_MOTION,ECCENTRICITY,INCLINATION,RA_OF_ASC_NODE,ARG_OF_PERICENTER,MEAN_ANOMALY,EPHEMERIS_TYPE,CLASSIFICATION_TYPE,NORAD_CAT_ID,ELEMENT_SET_NO,REV_AT_EPOCH,BSTAR,MEAN_MOTION_DOT,MEAN_MOTION_DDOT
DUBAISAT-1,2009-041B,2026-06-20T06:39:07.183008,14.75126481,.00115571,98.0056,304.5009,64.9742,295.2666,0,U,35682,999,90555,.90392703E-4,.559E-5,0
OCEANSAT-2,2009-051A,2026-06-20T06:33:44.941248,13.99663663,.00154563,98.2323,157.8171,226.6147,133.3733,0,U,35931,999,87976,-.10310453E-3,-.189E-5,0
WORLDVIEW-2 (WV-2),2009-055A,2026-06-20T07:05:02.706144,14.37900203,.00038959,98.4736,244.7019,197.6086,162.4966,0,U,35946,999,87609,.39289296E-4,.75E-6,0
SMOS,2009-059A,2026-06-19T11:35:21.088608,14.39773615,.00013232,98.4425,357.7841,88.1500,271.9840,0,U,36036,999,87378,.68385087E-4,.171E-5,0
YAOGAN-7,2009-069A,2026-06-20T06:29:44.832192,14.78012456,.00253862,98.0069,57.1187,32.2107,328.0648,0,U,36110,999,89008,.54395316E-4,.341E-5,0
TANDEM-X,2010-030A,2026-06-19T11:55:50.861280,15.19151444,.0001891,97.4451,178.1721,87.7400,272.4051,0,U,36605,999,88699,.12414064E-4,.194E-5,0
CARTOSAT-2B,2010-035A,2026-06-20T07:36:42.397632,14.78665989,.00115002,97.9945,221.8476,173.4384,186.6980,0,U,36795,999,86031,.11747204E-3,.809E-5,0
YAOGAN-10,2010-038A,2026-06-20T07:52:32.571264,14.85359462,.00017654,97.8972,194.7081,87.6820,42.4772,0,U,36834,999,85767,.21810488E-3,.1822E-4,0
COSMO-SKYMED 4,2010-060A,2026-06-20T06:42:02.710656,14.82156692,.00014504,97.8889,354.8334,85.7359,274.4019,0,U,37216,999,84502,.90178159E-4,.666E-5,0
RESOURCESAT-2,2011-015A,2026-06-20T06:08:58.672896,14.21600366,.00102593,98.7643,238.6770,245.6097,114.4010,0,U,37387,999,78661,.51747968E-4,.69E-6,0
HAIYANG-2A,2011-043A,2026-06-20T05:47:54.760992,13.74332602,.00058016,99.3394,173.8504,85.3803,274.8009,0,U,37781,999,74707,.19783411E-3,.143E-5,0
RASAT,2011-044D,2026-06-20T07:24:35.294112,14.68169259,.00204805,98.0575,262.6581,178.7865,222.8830,0,U,37791,999,79364,.9640082E-4,.507E-5,0
SRMSAT,2011-058D,2026-06-19T08:38:13.672608,14.11575972,.00117441,19.9728,46.3158,227.6220,288.1945,0,U,37841,999,75812,.48474163E-4,.354E-5,0
PLEIADES 1A,2011-076F,2026-06-20T06:53:15.981792,14.58532735,.00017191,98.1972,246.3487,94.9555,356.7289,0,U,38012,999,77244,.21068826E-3,.933E-5,0
ZIYUAN 1-02C (ZY 1-02C),2011-079A,2026-06-20T08:19:15.206592,14.38216825,.00053386,98.4066,238.5895,305.6618,122.9612,0,U,38038,999,75966,.97317845E-4,.253E-5,0
ARIRANG-3 (KOMPSAT-3),2012-025B,2026-06-20T07:37:01.339104,14.62208471,.00067592,98.1172,128.7233,101.5707,258.6254,0,U,38338,999,75180,.74137812E-4,.327E-5,0
EXACTVIEW-1 (ADS-1B),2012-039C,2026-06-20T04:33:24.515712,14.24985300,.0011322,98.9781,288.6479,158.0597,202.1068,0,U,38709,999,72313,.57900217E-4,.89E-6,0
SPOT 6,2012-047A,2026-06-20T06:50:13.954272,14.58563807,.00015482,98.2113,238.5582,93.8573,266.2804,0,U,38755,999,73350,.5542418E-5,-.2E-6,0
PLEIADES 1B,2012-068A,2026-06-20T07:17:29.007744,14.58561593,.00016914,98.1943,246.3129,91.6542,268.4851,0,U,39019,999,72130,.144062E-4,.21E-6,0
GOKTURK 2,2012-073A,2026-06-20T06:25:55.447104,14.75545341,.00014809,97.6816,8.5444,56.4429,303.6922,0,U,39030,999,72496,.55569435E-4,.331E-5,0
LANDSAT 8,2013-008A,2026-06-20T06:03:13.319136,14.57096253,.00013573,98.2301,241.3511,93.7477,266.3876,0,U,39084,999,69834,.60780036E-4,.228E-5,0
SARAL,2013-009A,2026-06-20T06:04:29.850528,14.32856554,.00006194,98.5558,357.7815,284.3528,75.7587,0,U,39086,999,69604,.34758972E-4,.51E-6,0
GAOFEN-1,2013-018A,2026-06-20T07:34:47.578944,14.76540604,.00156856,97.9090,243.3205,255.1744,104.7728,0,U,39150,999,70870,.10381219E-3,.674E-5,0
VNREDSAT 1,2013-021B,2026-06-20T07:11:12.111072,14.64858303,.00017214,97.9072,224.5966,87.9188,272.2212,0,U,39160,999,70074,.17666014E-4,.49E-6,0
ARIRANG-5 (KOMPSAT-5),2013-042A,2026-06-20T07:00:32.051232,15.04494383,.0005411,97.6202,357.9486,113.4388,246.7407,0,U,39227,999,70432,.17320166E-4,.182E-5,0
SKYSAT-A,2013-066C,2026-06-19T16:54:18.879552,15.12985941,.0019939,97.3811,220.0216,308.1910,51.7525,0,U,39418,999,68886,.12045578E-3,.2071E-4,0
DUBAISAT-2,2013-066D,2026-06-20T06:01:44.724576,15.10203929,.00119679,97.4570,161.3155,30.8206,329.3724,0,U,39419,999,68685,.32740271E-3,.5296E-4,0
GPM-CORE,2014-009C,2026-06-20T07:36:51.816096,15.44630005,.00117062,64.9722,297.6437,252.6936,107.2924,0,U,39574,999,69829,.21258697E-3,.9734E-4,0
SENTINEL-1A,2014-016A,2026-06-20T07:35:07.970208,14.59200023,.00014027,98.1778,178.8035,81.6699,278.4659,0,U,39634,999,65047,.48778098E-4,.184E-5,0
KAZEOSAT 1,2014-024A,2026-06-20T06:47:11.313312,14.42080828,.0001311,98.3201,243.6534,77.4043,282.7294,0,U,39731,999,63900,.26092218E-4,.43E-6,0
