DUBAISAT-1              
1 35682U 09041B   26171.27716647  .00000559  00000+0  90393-4 0  9991
2 35682  98.0056 304.5009 0011557  64.9742 295.2666 14.75126481905555
OCEANSAT-2              
1 35931U 09051A   26171.27343682 -.00000189  00000+0 -10310-3 0  9995
2 35931  98.2323 157.8171 0015456 226.6147 133.3733 13.99663663879761
WORLDVIEW-2 (WV-2)      
1 35946U 09055A   26171.29517021  .00000075  00000+0  39289-4 0  9996
2 35946  98.4736 244.7019 0003895 197.6086 162.4966 14.37900203876098
SMOS                    
1 36036U 09059A   26170.48288297  .00000171  00000+0  68385-4 0  9997
2 36036  98.4425 357.7841 0001323  88.1500 271.9840 14.39773615873788
YAOGAN-7                
1 36110U 09069A   26171.27065778  .00000341  00000+0  54395-4 0  9991
2 36110  98.0069  57.1187 0025386  32.2107 328.0648 14.78012456890087
TANDEM-X                
1 36605U 10030A   26170.49711645  .00000194  00000+0  12414-4 0  9996
2 36605  97.4451 178.1721 0001891  87.7400 272.4051 15.19151444886990
CARTOSAT-2B             
1 36795U 10035A   26171.31715738  .00000809  00000+0  11747-3 0  9990
2 36795  97.9945 221.8476 0011500 173.4384 186.6980 14.78665989860311
YAOGAN-10               
1 36834U 10038A   26171.32815476  .00001822  00000+0  21810-3 0  9996
2 36834  97.8972 194.7081 0001765  87.6820  42.4772 14.85359462857674
COSMO-SKYMED 4          
1 37216U 10060A   26171.27919804  .00000666  00000+0  90178-4 0  9999
2 37216  97.8889 354.8334 0001450  85.7359 274.4019 14.82156692845027
RESOURCESAT-2           
1 37387U 11015A   26171.25623464  .00000069  00000+0  51748-4 0  9998
2 37387  98.7643 238.6770 0010259 245.6097 114.4010 14.21600366786618
HAIYANG-2A              
1 37781U 11043A   26171.24160603  .00000143  00000+0  19783-3 0  9992
2 37781  99.3394 173.8504 0005801  85.3803 274.8009 13.74332602747070
RASAT                   
1 37791U 11044D   26171.30874183  .00000507  00000+0  96401-4 0  9993
2 37791  98.0575 262.6581 0020480 178.7865 222.8830 14.68169259793644
SRMSAT                  
1 37841U 11058D   26170.35988047  .00000354  00000+0  48474-4 0  9990
2 37841  19.9728  46.3158 0011744 227.6220 288.1945 14.11575972758128
PLEIADES 1A             
1 38012U 11076F   26171.28699053  .00000933  00000+0  21069-3 0  9993
2 38012  98.1972 246.3487 0001719  94.9555 356.7289 14.58532735772448
ZIYUAN 1-02C (ZY 1-02C) 
1 38038U 11079A   26171.34670378  .00000253  00000+0  97318-4 0  9996
2 38038  98.4066 238.5895 0005338 305.6618 122.9612 14.38216825759661
ARIRANG-3 (KOMPSAT-3)   
1 38338U 12025B   26171.31737661  .00000327  00000+0  74138-4 0  9994
2 38338  98.1172 128.7233 0006759 101.5707 258.6254 14.62208471751807
EXACTVIEW-1 (ADS-1B)    
1 38709U 12039C   26171.18986708  .00000089  00000+0  57900-4 0  9997
2 38709  98.9781 288.6479 0011322 158.0597 202.1068 14.24985300723130
SPOT 6                  
1 38755U 12047A   26171.28488373 -.00000020  00000+0  55424-5 0  9999
2 38755  98.2113 238.5582 0001548  93.8573 266.2804 14.58563807733503
PLEIADES 1B             
1 39019U 12068A   26171.30380796  .00000021  00000+0  14406-4 0  9993
2 39019  98.1943 246.3129 0001691  91.6542 268.4851 14.58561593721303
GOKTURK 2               
1 39030U 12073A   26171.26800286  .00000331  00000+0  55569-4 0  9997
2 39030  97.6816   8.5444 0001480  56.4429 303.6922 14.75545341724964
LANDSAT 8               
1 39084U 13008A   26171.25223749  .00000228  00000+0  60780-4 0  9993
2 39084  98.2301 241.3511 0001357  93.7477 266.3876 14.57096253698349
SARAL                   
1 39086U 13009A   26171.25312327  .00000051  00000+0  34759-4 0  9998
2 39086  98.5558 357.7815 0000619 284.3528  75.7587 14.32856554696049
GAOFEN-1                
1 39150U 13018A   26171.31582846  .00000674  00000+0  10381-3 0  9997
2 39150  97.9090 243.3205 0015685 255.1744 104.7728 14.76540604708704
VNREDSAT 1              
1 39160U 13021B   26171.29944573  .00000049  00000+0  17666-4 0  9998
2 39160  97.9072 224.5966 0001721  87.9188 272.2212 14.64858303700749
ARIRANG-5 (KOMPSAT-5)   
1 39227U 13042A   26171.29203763  .00000182  00000+0  17320-4 0  9999
2 39227  97.6202 357.9486 0005411 113.4388 246.7407 15.04494383704329
SKYSAT-A                
1 39418U 13066C   26170.70438518  .00002071  00000+0  12046-3 0  9998
2 39418  97.3811 220.0216 0019939 308.1910  51.7525 15.12985941688868
DUBAISAT-2              
1 39419U 13066D   26171.25121209  .00005296  00000+0  32740-3 0  9991
2 39419  97.4570 161.3155 0011967  30.8206 329.3724 15.10203929686850
GPM-CORE                
1 39574U 14009C   26171.31726639  .00009734  00000+0  21259-3 0  9990
2 39574  64.9722 297.6437 0011706 252.6936 107.2924 15.44630005698293
SENTINEL-1A             
1 39634U 14016A   26171.31606447  .00000184  00000+0  48778-4 0  9995
2 39634  98.1778 178.8035 0001402  81.6699 278.4659 14.59200023650474
KAZEOSAT 1              
1 39731U 14024A   26171.28276983  .00000043  00000+0  26092-4 0  9995
2 39731  98.3201 243.6534 0001311  77.4043 282.7294 14.42080828639005
